#aV2007  2 17  0  0   .00000000      96 DD+AD WGS84 FIT  NGA
## 1414 518400.00000000   900.00000000 54148  .0000000000000
+   30     1  2  3  4  5  6  7  8  9 10 11 12 13 14 16 17 18
+         19 20 21 22 23 24 25 26 27 28 29 30 31  0  0  0  0
+          0  0  0  0  0  0  0  0  0  0  0  0  0  0  0  0  0
+          0  0  0  0  0  0  0  0  0  0  0  0  0  0  0  0  0
+          0  0  0  0  0  0  0  0  0  0  0  0  0  0  0  0  0
++         0  0  0  0  0  0  0  0  0  0  0  0  0  0  0  0  0
++         0  0  0  0  0  0  0  0  0  0  0  0  0  0  0  0  0
++         0  0  0  0  0  0  0  0  0  0  0  0  0  0  0  0  0
++         0  0  0  0  0  0  0  0  0  0  0  0  0  0  0  0  0
++         0  0  0  0  0  0  0  0  0  0  0  0  0  0  0  0  0
%c cc cc ccc ccc cccc cccc cccc cccc ccccc ccccc ccccc ccccc
%c cc cc ccc ccc cccc cccc cccc cccc ccccc ccccc ccccc ccccc
%f  0.0000000  0.000000000  0.00000000000  0.000000000000000
%f  0.0000000  0.000000000  0.00000000000  0.000000000000000
%i    0    0    0    0      0      0      0      0         0
%i    0    0    0    0      0      0      0      0         0
/*      NGA, ST. LOUIS,MO.                                  
/*   EPHEMERIS COMPUTED FROM  3 DAYS OF DATA                
/* CCCCCCCCCCCCCCCCCCCCCCCCCCCCCCCCCCCCCCCCCCCCCCCCCCCCCCCCC
/* CCCCCCCCCCCCCCCCCCCCCCCCCCCCCCCCCCCCCCCCCCCCCCCCCCCCCCCCC
*  2007  2 17 17 45   .00000000                                                 
P  1 -11679.122355  20163.900419  12898.725542    108.393526                    
V  1 -13469.293510   8799.646415 -26433.244236       .023368                    
P  2    673.232109 -15812.260698  21125.285877     83.192324                    
V  2  26109.731653   8285.378234   5056.714197       .033093                    
P  3  -6031.811215  21739.239930 -13959.468922     15.264238                    
V  3 -14336.497626  10696.945121  23519.611144       .058993                    
P  4  16055.192804  -8977.004354  19219.969087      4.334672                    
V  4  22611.927752   9456.170664 -14061.668322       .018726                    
P  5 -14331.862128 -19068.898129  11610.399304     36.799130                    
V  5  -1416.941679 -15288.771237 -26188.561373       .056496                    
P  6 -19150.716589   -862.126802  18589.780636     34.839169                    
V  6  15751.241094 -17260.431097  15531.409703       .258562                    
P  7 -20621.584801   2929.178886  16867.747361    412.504910                    
V  7  13297.376610 -16167.099137  19375.202660      -.124399                    
P  8  22980.788722  -1008.350475 -13770.380205    -97.051356                    
V  8  15375.822336   7604.379961  24895.461958      -.013811                    
P  9 -17271.111381 -15266.065371 -13979.445980     58.010915                    
V  9  16498.232869   3060.187749 -24537.488549       .016015                    
P 10  -1127.640028 -25890.670003   4847.046271     97.623170                    
V 10   3776.639268   5779.206383  31387.410249       .005807                    
P 11  19907.703029  13143.777119 -12068.507778      7.516703                    
V 11 -15652.554496   1182.689917 -24451.394122       .012794                    
P 12 -12244.141181 -20745.290560  11344.999045    -50.052715                    
V 12   -522.638448 -14404.779164 -27120.488168       .032829                    
P 13  20093.946838  -2071.411491  17127.158151    144.565380                    
V 13 -16165.765722  14785.362466  20687.334246       .039792                    
P 14 -21080.654038  15938.513921  -2180.225355      8.564093                    
V 14    896.555298  -3382.506634 -32232.146015       .013786                    
P 16  -3338.207755  23915.991856  10989.601005    123.205067                    
V 16  -4921.893871 -13197.621907  27562.297268       .035854                    
P 17  21178.234284 -15641.919130  -2957.937949     78.411405                    
V 17   -926.447763   4683.344617 -31517.911863      -.014294                    
P 18 -15594.226259  -2199.846029 -21292.285379   -253.652825                    
V 18  -3817.364581 -27060.531574   5240.140338       .001920                    
P 19   1460.718476  16910.124827 -20309.870488      5.890262                    
V 19 -21287.430973  15034.564085  11031.829248       .041291                    
P 20  13187.436718  19255.894854  12622.219226    -22.422962                    
V 20    923.696667  16340.001259 -25650.693767      -.001881                    
P 21 -25533.181168  -4070.583807  -7144.311532     71.516058                    
V 21  -7497.859388  -5870.663999  29171.483965       .009373                    
P 22 -12677.204225  11709.700822 -20029.088051    167.959564                    
V 22  -4934.033380 -25362.754466 -11633.044476       .017037                    
P 23  13353.502006   7884.957799  21506.536394    150.441482                    
V 23 -20381.356067  18376.706981   5707.752902       .016784                    
P 24 -20037.095110 -14815.136587   8988.663402     78.180953                    
V 24  11496.613572   1495.516625  28989.327207       .031984                    
P 25    -41.457622  15751.160676  21787.734632    341.156282                    
V 25 -26102.844765  -5760.702246   4345.402315      -.174418                    
P 26   -274.340134 -17133.763966 -20536.023097    -47.980689                    
V 26  20101.937843 -15293.398549  13311.836998      -.185830                    
P 27  25969.271007   4344.253657  -3794.102857     94.669301                    
V 27   4697.955750   3968.280926  31131.324074       .020580                    
P 28  13785.673282  -7055.489237 -21216.254737      7.146780                    
V 28   5470.611804  27207.574030  -5757.702186      -.007834                    
P 29   4250.602111 -19132.969985 -17528.425464    351.521076                    
V 29  18037.119696 -13981.787947  19731.550551       .094577                    
P 30 -15982.693483 -10318.831974  18276.075336     25.668783                    
V 30  -3815.808077 -23593.203237 -16276.598590       .010426                    
P 31 -13268.670301  10719.681424  20574.508893      9.057822                    
V 31 -24041.011901  -9010.153315 -10860.985656       .036111                    
EOF
